STARLINK-37216          
1 68391U 26063M   26092.75002315 -.01776907  94644-3 -36507-2 0  9998
2 68391  97.2823 233.5498 0001529  75.5954  91.9601 15.99447323  2326
