{
  "norad_id": 68391,
  "name": "STARLINK-37216",
  "history": [
    {
      "epoch": "2026-04-02T18:00:01.999296Z",
      "apogee_km": 276.9691823096491,
      "perigee_km": 274.93303134895905,
      "latitude_deg": 12.280507920608946,
      "longitude_deg": -45.96778743441593,
      "height_km": 278.41771348967,
      "semi_major_axis_km": 6654.088106829304,
      "eccentricity": 0.000153,
      "inclination_deg": 97.2823,
      "raan_deg": 233.5498,
      "arg_perigee_deg": 75.5954,
      "mean_anomaly_deg": 91.9601,
      "mean_motion_rev_day": 15.99447323
    }
  ]
}